CZ-4B R/B               
1 28415U 04035C   25300.03000447  .00009810  00000+0  37375-3 0  9995
2 28415  97.3671 331.0169 0035972  82.7487 277.7838 15.26300959159502
CZ-2C R/B               
1 28480U 04046B   25299.76714231  .00000232  00000+0  10150-3 0  9990
2 28480  98.1941 218.0759 0139237 190.4233 169.4056 14.26910162 89409
ARIANE 5 R/B            
1 28499U 04049H   25300.02341152  .00001410  00000+0  16232-3 0  9999
2 28499  98.2507  98.6427 0085887  64.6339 296.3737 14.84871931125953
CZ-2D R/B               
1 28738U 05024B   25300.03023787  .00030024  00000+0  53397-3 0  9997
2 28738  97.3685 306.3499 0007321 134.9528 225.2318 15.50089228119012
ALOS (DAICHI)           
1 28931U 06002A   25300.11704613  .00002465  00000+0  42635-3 0  9993
2 28931  98.1015 251.9599 0001807  56.5364 303.6014 14.69253270 53862
H-2A R/B                
1 28932U 06002B   25300.12230225  .00009406  00000+0  51229-3 0  9999
2 28932  98.2288  71.1235 0055412 335.8812  23.9823 15.13336910 74212
RESURS-DK 1             
1 29228U 06021A   25300.18910476  .00003853  00000+0  23133-3 0  9991
2 29228  69.9336 222.1011 0006869 298.7590  61.2885 15.11780410 67347
CZ-4B R/B               
1 29507U 06046C   25300.15527714  .00005371  00000+0  28545-3 0  9993
2 29507  97.5799 340.4228 0034803  12.6025 347.6069 15.15193907 39815
CZ-2C R/B               
1 31114U 07010B   25300.07881951  .00000218  00000+0  11938-3 0  9992
2 31114  98.3945  55.0860 0058300 323.6122  36.1098 14.20182231960757
COSMO-SKYMED 1          
1 31598U 07023A   25300.15327522  .00003832  00000+0  35331-3 0  9998
2 31598  97.8875 125.2601 0001380  81.5124 278.6253 14.95276783994931
COSMOS 2428             
1 31792U 07029A   25299.94095863 -.00000238  00000+0 -10216-3 0  9998
2 31792  70.9366 124.1300 0001739 127.3115 232.8165 14.12894456945207
SL-16 R/B               
1 31793U 07029B   25300.17223968 -.00000105  00000+0 -29816-4 0  9996
2 31793  70.9734  93.0414 0002567 263.2703 269.7603 14.14804216946484
KORONAS-FOTON           
1 33504U 09003A   25300.04906081  .00015773  00000+0  39802-3 0  9992
2 33504  82.4329  54.4186 0010680 277.6185  82.3847 15.39655695925152
CZ-2C R/B               
1 37731U 11030B   25300.16149395  .00002325  00000+0  30181-3 0  9991
2 37731  97.8337 255.3280 0054659  65.5575 305.8063 14.80651645770332
H-2A R/B                
1 38341U 12025E   25299.83055176  .00005058  00000+0  47127-3 0  9992
2 38341  98.4526 251.4827 0046710  32.2698 328.1362 14.93942053728228
SHIJIAN-16 (SJ-16)      
1 39358U 13057A   25300.19667176  .00001875  00000+0  18863-3 0  9996
2 39358  74.9721  77.6995 0015976  75.5901 284.7059 14.91731144651594
SL-4 R/B                
1 39679U 14021B   25300.15561951  .00017902  00000+0  44380-3 0  9995
2 39679  51.6082 266.6945 0105459 338.3060  21.3471 15.34863810635734
ALOS-2                  
1 39766U 14029A   25300.21151478  .00001642  00000+0  22694-3 0  9994
2 39766  97.9231  35.7198 0001129  97.0520 263.0820 14.79437887617130
YAOGAN-29               
1 41038U 15069A   25300.19160094  .00000700  00000+0  93320-4 0  9994
2 41038  98.0271 323.2017 0002800  76.2002 283.9523 14.82805064536093
ASTRO-H (HITOMI)        
1 41337U 16012A   25299.99489659  .00004396  00000+0  26588-3 0  9997
2 41337  30.9978 138.6231 0009916  67.3092 292.8593 15.08929210532018
HXMT (HUIYAN)           
1 42758U 17034A   25300.20570999  .00008404  00000+0  44249-3 0  9993
2 42758  43.0152  37.7128 0031879 112.4251 247.9978 15.15478545462277
CZ-2C R/B               
1 43521U 18054D   25299.90495020  .00070831  00000+0  69394-3 0  9991
2 43521  35.1345 136.1035 0026317  49.4704 310.8313 15.64453248407691
SAOCOM 1A               
1 43641U 18076A   25300.15714132  .00000727  00000+0  97824-4 0  9993
2 43641  97.8878 125.2521 0001436  85.8663 274.2714 14.82167525381588
H-2A R/B                
1 43682U 18084L   25299.99058744  .00022223  00000+0  64512-3 0  9998
2 43682  98.8822 124.4672 0029389 124.7943 235.6068 15.35104154385228
SAOCOM 1B               
1 46265U 20059A   25300.18842118  .00000717  00000+0  96589-4 0  9997
2 46265  97.8867 124.3862 0001362  88.5157 271.6212 14.82158754278971
CSS (TIANHE)            
1 48274U 21035A   25300.15952994  .00033355  00000+0  39100-3 0  9994
2 48274  41.4668 299.6629 0010927 290.7001  69.2667 15.60744801256754
COSMOS 2550             
1 48865U 21056A   25300.16784833  .00000691  00000+0  26829-4 0  9991
2 48865  67.1424  84.8603 0008314 270.0635  89.9567 15.33829589242987
CZ-2C R/B               
1 52794U 22058K   25300.16742525  .00027263  00000+0  54238-3 0  9990
2 52794  50.1913 280.4827 0051088   4.1664 355.9718 15.45269053189424
GSLV R/B                
1 54149U 22138AN  25300.16471090  .00004722  00000+0  42007-3 0  9997
2 54149  87.3853 211.0573 0019053 278.9721  80.9353 14.95739908163960
XRISM                   
1 57800U 23137A   25299.70254679  .00006549  00000+0  39168-3 0  9996
2 57800  31.0027  69.0686 0008210 131.1073 229.0274 15.09599781117512
ACS3                    
1 59588U 24077B   25300.19604184  .00011239  00000+0  10323-1 0  9993
2 59588  97.3472 266.0910 0028103  28.4604 331.8084 13.82690747 75704
